[{"OBJECT_NAME":"STARLINK-4270","OBJECT_ID":"2022-062AK","EPOCH":"2026-03-09T06:27:17.093376","MEAN_MOTION":15.08840708,"ECCENTRICITY":0.00015494,"INCLINATION":53.219,"RA_OF_ASC_NODE":26.0089,"ARG_OF_PERICENTER":93.4908,"MEAN_ANOMALY":266.6262,"EPHEMERIS_TYPE":0,"CLASSIFICATION_TYPE":"U","NORAD_CAT_ID":52863,"ELEMENT_SET_NO":999,"REV_AT_EPOCH":20586,"BSTAR":3.4003308e-5,"MEAN_MOTION_DOT":2.53e-6,"MEAN_MOTION_DDOT":0},{"OBJECT_NAME":"SL-3 DEB","OBJECT_ID":"1988-032C","EPOCH":"2026-03-09T20:54:05.348736","MEAN_MOTION":15.06065434,"ECCENTRICITY":0.00240661,"INCLINATION":97.6252,"RA_OF_ASC_NODE":41.5186,"ARG_OF_PERICENTER":162.4496,"MEAN_ANOMALY":255.7854,"EPHEMERIS_TYPE":0,"CLASSIFICATION_TYPE":"U","NORAD_CAT_ID":24893,"ELEMENT_SET_NO":999,"REV_AT_EPOCH":81391,"BSTAR":0.00022425917,"MEAN_MOTION_DOT":3.232e-5,"MEAN_MOTION_DDOT":0}]
